[{"OBJECT_NAME":"ALTAIR (RS65S)","OBJECT_ID":"2024-199AW","EPOCH":"2026-03-09T21:31:54.569568","MEAN_MOTION":15.34998047,"ECCENTRICITY":0.00120363,"INCLINATION":97.3179,"RA_OF_ASC_NODE":298.9542,"ARG_OF_PERICENTER":307.5319,"MEAN_ANOMALY":52.483,"EPHEMERIS_TYPE":0,"CLASSIFICATION_TYPE":"U","NORAD_CAT_ID":61779,"ELEMENT_SET_NO":999,"REV_AT_EPOCH":12187,"BSTAR":0.00027541775,"MEAN_MOTION_DOT":9.293e-5,"MEAN_MOTION_DDOT":0},{"OBJECT_NAME":"STARLINK-34268","OBJECT_ID":"2025-133AA","EPOCH":"2026-03-09T12:29:08.088000","MEAN_MOTION":15.30191923,"ECCENTRICITY":0.00014187,"INCLINATION":53.1597,"RA_OF_ASC_NODE":117.4973,"ARG_OF_PERICENTER":74.9489,"MEAN_ANOMALY":285.1669,"EPHEMERIS_TYPE":0,"CLASSIFICATION_TYPE":"U","NORAD_CAT_ID":64496,"ELEMENT_SET_NO":999,"REV_AT_EPOCH":4116,"BSTAR":0.00083690624,"MEAN_MOTION_DOT":0.00024503,"MEAN_MOTION_DDOT":0}]
